[{"OBJECT_NAME":"TIANQI-22","OBJECT_ID":"2023-135B","EPOCH":"2026-03-09T19:41:12.033888","MEAN_MOTION":14.23087857,"ECCENTRICITY":0.00131339,"INCLINATION":49.9676,"RA_OF_ASC_NODE":210.6305,"ARG_OF_PERICENTER":271.8708,"MEAN_ANOMALY":88.07,"EPHEMERIS_TYPE":0,"CLASSIFICATION_TYPE":"U","NORAD_CAT_ID":57793,"ELEMENT_SET_NO":999,"REV_AT_EPOCH":13047,"BSTAR":9.8333486e-5,"MEAN_MOTION_DOT":6.4e-7,"MEAN_MOTION_DDOT":0},{"OBJECT_NAME":"CZ-6A DEB","OBJECT_ID":"2022-151FT","EPOCH":"2026-03-09T12:40:01.818912","MEAN_MOTION":14.21857153,"ECCENTRICITY":0.00164729,"INCLINATION":98.817,"RA_OF_ASC_NODE":90.6586,"ARG_OF_PERICENTER":233.6573,"MEAN_ANOMALY":126.3084,"EPHEMERIS_TYPE":0,"CLASSIFICATION_TYPE":"U","NORAD_CAT_ID":54443,"ELEMENT_SET_NO":999,"REV_AT_EPOCH":17178,"BSTAR":0.00084822437,"MEAN_MOTION_DOT":1.827e-5,"MEAN_MOTION_DDOT":0}]
